{
  "type": "FeatureCollection",
  "features": [
    {
      "type": "Feature",
      "properties": {
        "norad_id": 34420,
        "name": "COSMOS 2251 DEB",
        "group": "cosmos-2251-debris",
        "lat": -72.8749872102226,
        "lon": 15.394973949834302,
        "alt_km": 651.9035720663651,
        "timestamp": "2025-12-23T05:02:12.424137+00:00",
        "meta_object_name": "COSMOS 2251 DEB",
        "meta_object_id": "1993-036RM",
        "meta_epoch": "2025-12-22T17:02:12.753312",
        "meta_mean_motion": 14.6832519,
        "meta_eccentricity": 0.01061899,
        "meta_inclination": 74.0333,
        "meta_ra_of_asc_node": 84.6741,
        "meta_arg_of_pericenter": 203.4437,
        "meta_mean_anomaly": 309.7796,
        "meta_ephemeris_type": 0,
        "meta_classification_type": "U",
        "meta_norad_cat_id": 34420,
        "meta_element_set_no": 999,
        "meta_rev_at_epoch": 89916,
        "meta_bstar": 0.00019514401,
        "meta_mean_motion_dot": 1.191e-05,
        "meta_mean_motion_ddot": 0,
        "tle_line1": "1 34420U 93036RM  25356.70986983  .00001191  00000+0  19514-3 0  9999",
        "tle_line2": "2 34420  74.0333  84.6741 0106189 203.4437 309.7796 14.68325190899166"
      },
      "geometry": {
        "type": "Point",
        "coordinates": [
          15.394973949834302,
          -72.8749872102226
        ]
      }
    },
    {
      "type": "Feature",
      "properties": {
        "norad_id": 34425,
        "name": "COSMOS 2251 DEB",
        "group": "cosmos-2251-debris",
        "lat": 46.8413769127393,
        "lon": -163.34716478426117,
        "alt_km": 666.4483363976587,
        "timestamp": "2025-12-23T05:02:12.424147+00:00",
        "meta_object_name": "COSMOS 2251 DEB",
        "meta_object_id": "1993-036RS",
        "meta_epoch": "2025-12-22T20:13:52.808448",
        "meta_mean_motion": 14.62179363,
        "meta_eccentricity": 0.00242436,
        "meta_inclination": 74.0192,
        "meta_ra_of_asc_node": 35.1507,
        "meta_arg_of_pericenter": 158.7309,
        "meta_mean_anomaly": 201.4872,
        "meta_ephemeris_type": 0,
        "meta_classification_type": "U",
        "meta_norad_cat_id": 34425,
        "meta_element_set_no": 999,
        "meta_rev_at_epoch": 88888,
        "meta_bstar": 0.00052200954,
        "meta_mean_motion_dot": 2.609e-05,
        "meta_mean_motion_ddot": 0,
        "tle_line1": "1 34425U 93036RS  25356.84297232  .00002609  00000+0  52201-3 0  9996",
        "tle_line2": "2 34425  74.0192  35.1507 0024243 158.7309 201.4872 14.62179363888888"
      },
      "geometry": {
        "type": "Point",
        "coordinates": [
          -163.34716478426117,
          46.8413769127393
        ]
      }
    },
    {
      "type": "Feature",
      "properties": {
        "norad_id": 34429,
        "name": "COSMOS 2251 DEB",
        "group": "cosmos-2251-debris",
        "lat": 18.07388271485041,
        "lon": 150.55031327731498,
        "alt_km": 421.53721754302296,
        "timestamp": "2025-12-23T05:02:12.424158+00:00",
        "meta_object_name": "COSMOS 2251 DEB",
        "meta_object_id": "1993-036RW",
        "meta_epoch": "2025-12-22T20:09:55.980864",
        "meta_mean_motion": 15.4576195,
        "meta_eccentricity": 0.00125011,
        "meta_inclination": 73.9678,
        "meta_ra_of_asc_node": 145.9744,
        "meta_arg_of_pericenter": 346.9165,
        "meta_mean_anomaly": 135.8075,
        "meta_ephemeris_type": 0,
        "meta_classification_type": "U",
        "meta_norad_cat_id": 34429,
        "meta_element_set_no": 999,
        "meta_rev_at_epoch": 89604,
        "meta_bstar": 0.005332713,
        "meta_mean_motion_dot": 0.00267889,
        "meta_mean_motion_ddot": 0,
        "tle_line1": "1 34429U 93036RW  25356.84023126  .00267889  00000+0  53327-2 0  9991",
        "tle_line2": "2 34429  73.9678 145.9744 0012501 346.9165 135.8075 15.45761950896040"
      },
      "geometry": {
        "type": "Point",
        "coordinates": [
          150.55031327731498,
          18.07388271485041
        ]
      }
    },
    {
      "type": "Feature",
      "properties": {
        "norad_id": 34430,
        "name": "COSMOS 2251 DEB",
        "group": "cosmos-2251-debris",
        "lat": 33.53280684941066,
        "lon": 93.1203462128116,
        "alt_km": 795.9940428885002,
        "timestamp": "2025-12-23T05:02:12.424167+00:00",
        "meta_object_name": "COSMOS 2251 DEB",
        "meta_object_id": "1993-036RX",
        "meta_epoch": "2025-12-22T20:01:43.144032",
        "meta_mean_motion": 14.3966097,
        "meta_eccentricity": 0.00608119,
        "meta_inclination": 74.0518,
        "meta_ra_of_asc_node": 284.7364,
        "meta_arg_of_pericenter": 352.0236,
        "meta_mean_anomaly": 7.9945,
        "meta_ephemeris_type": 0,
        "meta_classification_type": "U",
        "meta_norad_cat_id": 34430,
        "meta_element_set_no": 999,
        "meta_rev_at_epoch": 88100,
        "meta_bstar": 0.00039569808,
        "meta_mean_motion_dot": 1.238e-05,
        "meta_mean_motion_ddot": 0,
        "tle_line1": "1 34430U 93036RX  25356.83452713  .00001238  00000+0  39570-3 0  9999",
        "tle_line2": "2 34430  74.0518 284.7364 0060811 352.0236   7.9945 14.39660970881008"
      },
      "geometry": {
        "type": "Point",
        "coordinates": [
          93.1203462128116,
          33.53280684941066
        ]
      }
    },
    {
      "type": "Feature",
      "properties": {
        "norad_id": 34431,
        "name": "COSMOS 2251 DEB",
        "group": "cosmos-2251-debris",
        "lat": -3.0092512252713517,
        "lon": 155.38710911506803,
        "alt_km": 837.0116347642179,
        "timestamp": "2025-12-23T05:02:12.424177+00:00",
        "meta_object_name": "COSMOS 2251 DEB",
        "meta_object_id": "1993-036RY",
        "meta_epoch": "2025-12-22T20:38:58.328448",
        "meta_mean_motion": 14.28807604,
        "meta_eccentricity": 0.00678065,
        "meta_inclination": 74.0738,
        "meta_ra_of_asc_node": 156.8796,
        "meta_arg_of_pericenter": 139.8863,
        "meta_mean_anomaly": 220.7322,
        "meta_ephemeris_type": 0,
        "meta_classification_type": "U",
        "meta_norad_cat_id": 34431,
        "meta_element_set_no": 999,
        "meta_rev_at_epoch": 87287,
        "meta_bstar": 0.00065335504,
        "meta_mean_motion_dot": 1.663e-05,
        "meta_mean_motion_ddot": 0,
        "tle_line1": "1 34431U 93036RY  25356.86039732  .00001663  00000+0  65336-3 0  9996",
        "tle_line2": "2 34431  74.0738 156.8796 0067806 139.8863 220.7322 14.28807604872873"
      },
      "geometry": {
        "type": "Point",
        "coordinates": [
          155.38710911506803,
          -3.0092512252713517
        ]
      }
    },
    {
      "type": "Feature",
      "properties": {
        "norad_id": 34432,
        "name": "COSMOS 2251 DEB",
        "group": "cosmos-2251-debris",
        "lat": 65.83749630686756,
        "lon": -136.4228237687255,
        "alt_km": 802.8338115624429,
        "timestamp": "2025-12-23T05:02:12.424187+00:00",
        "meta_object_name": "COSMOS 2251 DEB",
        "meta_object_id": "1993-036RZ",
        "meta_epoch": "2025-12-22T17:16:08.561856",
        "meta_mean_motion": 14.02946271,
        "meta_eccentricity": 0.0181626,
        "meta_inclination": 73.8281,
        "meta_ra_of_asc_node": 84.7419,
        "meta_arg_of_pericenter": 165.8591,
        "meta_mean_anomaly": 348.5505,
        "meta_ephemeris_type": 0,
        "meta_classification_type": "U",
        "meta_norad_cat_id": 34432,
        "meta_element_set_no": 999,
        "meta_rev_at_epoch": 85824,
        "meta_bstar": 0.0009096832,
        "meta_mean_motion_dot": 1.607e-05,
        "meta_mean_motion_ddot": 0,
        "tle_line1": "1 34432U 93036RZ  25356.71954354  .00001607  00000+0  90968-3 0  9994",
        "tle_line2": "2 34432  73.8281  84.7419 0181626 165.8591 348.5505 14.02946271858242"
      },
      "geometry": {
        "type": "Point",
        "coordinates": [
          -136.4228237687255,
          65.83749630686756
        ]
      }
    },
    {
      "type": "Feature",
      "properties": {
        "norad_id": 34433,
        "name": "COSMOS 2251 DEB",
        "group": "cosmos-2251-debris",
        "lat": 31.622107662344277,
        "lon": -53.774075918209554,
        "alt_km": 910.1419548451604,
        "timestamp": "2025-12-23T05:02:12.424197+00:00",
        "meta_object_name": "COSMOS 2251 DEB",
        "meta_object_id": "1993-036SA",
        "meta_epoch": "2025-12-22T16:26:02.164992",
        "meta_mean_motion": 14.12893248,
        "meta_eccentricity": 0.01527957,
        "meta_inclination": 74.0095,
        "meta_ra_of_asc_node": 137.3252,
        "meta_arg_of_pericenter": 273.2963,
        "meta_mean_anomaly": 85.0708,
        "meta_ephemeris_type": 0,
        "meta_classification_type": "U",
        "meta_norad_cat_id": 34433,
        "meta_element_set_no": 999,
        "meta_rev_at_epoch": 86090,
        "meta_bstar": 0.00096242284,
        "meta_mean_motion_dot": 1.975e-05,
        "meta_mean_motion_ddot": 0,
        "tle_line1": "1 34433U 93036SA  25356.68474728  .00001975  00000+0  96242-3 0  9992",
        "tle_line2": "2 34433  74.0095 137.3252 0152795 273.2963  85.0708 14.12893248860901"
      },
      "geometry": {
        "type": "Point",
        "coordinates": [
          -53.774075918209554,
          31.622107662344277
        ]
      }
    }
  ]
}